{"type": "FeatureCollection", "features": [ {"type": "Feature", "properties": {"norad_id": 66765, "name": "TRANSPORTER-15 DD", "group": "last-30-days", "lat": 78.34627392001552, "lon": -74.21281091902138, "alt_km": 501.4071208010064, "timestamp": "2025-12-20T18:51:30.446830+00:00", "meta": {"OBJECT_NAME": "TRANSPORTER-15 DD", "OBJECT_ID": "2025-276DD", "EPOCH": "2025-12-20T02:36:39.213216", "MEAN_MOTION": 15.18662089, "ECCENTRICITY": 0.00017759, "INCLINATION": 97.4432, "RA_OF_ASC_NODE": 65.7842, "ARG_OF_PERICENTER": 122.5076, "MEAN_ANOMALY": 237.633, "EPHEMERIS_TYPE": 0, "CLASSIFICATION_TYPE": "U", "NORAD_CAT_ID": 66765, "ELEMENT_SET_NO": 999, "REV_AT_EPOCH": 324, "BSTAR": 0.00039266408, "MEAN_MOTION_DOT": 8.073e-05, "MEAN_MOTION_DDOT": 0}, "tle": {"line1": "1 66765U 25276DD  25354.10878719  .00008073  00000+0  39266-3 0  9998", "line2": "2 66765  97.4432  65.7842 0001775 122.5076 237.6330 15.18662089  3245"}}, "geometry": {"type": "Point", "coordinates": [-74.21281091902138, 78.34627392001552]}}, {"type": "Feature", "properties": {"norad_id": 66766, "name": "TRANSPORTER-15 DE", "group": "last-30-days", "lat": 81.68944605339601, "lon": 3.0122732816546525, "alt_km": 501.88544297019143, "timestamp": "2025-12-20T18:51:30.446840+00:00", "meta": {"OBJECT_NAME": "TRANSPORTER-15 DE", "OBJECT_ID": "2025-276DE", "EPOCH": "2025-12-20T10:34:18.268608", "MEAN_MOTION": 15.1837622, "ECCENTRICITY": 0.00020434, "INCLINATION": 97.4373, "RA_OF_ASC_NODE": 66.0895, "ARG_OF_PERICENTER": 89.4628, "MEAN_ANOMALY": 270.684, "EPHEMERIS_TYPE": 0, "CLASSIFICATION_TYPE": "U", "NORAD_CAT_ID": 66766, "ELEMENT_SET_NO": 999, "REV_AT_EPOCH": 329, "BSTAR": 0.00033076229, "MEAN_MOTION_DOT": 6.733e-05, "MEAN_MOTION_DDOT": 0}, "tle": {"line1": "1 66766U 25276DE  25354.44048922  .00006733  00000+0  33076-3 0  9995", "line2": "2 66766  97.4373  66.0895 0002043  89.4628 270.6840 15.18376220  3292"}}, "geometry": {"type": "Point", "coordinates": [3.0122732816546525, 81.68944605339601]}}, {"type": "Feature", "properties": {"norad_id": 66767, "name": "TRANSPORTER-15 DF", "group": "last-30-days", "lat": 79.35138267239445, "lon": 22.408032170034108, "alt_km": 502.3058281076601, "timestamp": "2025-12-20T18:51:30.446850+00:00", "meta": {"OBJECT_NAME": "TRANSPORTER-15 DF", "OBJECT_ID": "2025-276DF", "EPOCH": "2025-12-20T10:35:17.762784", "MEAN_MOTION": 15.18252938, "ECCENTRICITY": 0.00021766, "INCLINATION": 97.4391, "RA_OF_ASC_NODE": 66.0905, "ARG_OF_PERICENTER": 96.1826, "MEAN_ANOMALY": 263.9656, "EPHEMERIS_TYPE": 0, "CLASSIFICATION_TYPE": "U", "NORAD_CAT_ID": 66767, "ELEMENT_SET_NO": 999, "REV_AT_EPOCH": 329, "BSTAR": 6.783328e-05, "MEAN_MOTION_DOT": 1.322e-05, "MEAN_MOTION_DDOT": 0}, "tle": {"line1": "1 66767U 25276DF  25354.44117781  .00001322  00000+0  67833-4 0  9994", "line2": "2 66767  97.4391  66.0905 0002176  96.1826 263.9656 15.18252938  3296"}}, "geometry": {"type": "Point", "coordinates": [22.408032170034108, 79.35138267239445]}}, {"type": "Feature", "properties": {"norad_id": 66768, "name": "TRANSPORTER-15 DG", "group": "last-30-days", "lat": 82.18115834693609, "lon": -41.65667704309816, "alt_km": 501.85332657073195, "timestamp": "2025-12-20T18:51:30.446860+00:00", "meta": {"OBJECT_NAME": "TRANSPORTER-15 DG", "OBJECT_ID": "2025-276DG", "EPOCH": "2025-12-20T10:32:42.407808", "MEAN_MOTION": 15.18429861, "ECCENTRICITY": 0.00019616, "INCLINATION": 97.4316, "RA_OF_ASC_NODE": 66.0947, "ARG_OF_PERICENTER": 82.5638, "MEAN_ANOMALY": 277.5819, "EPHEMERIS_TYPE": 0, "CLASSIFICATION_TYPE": "U", "NORAD_CAT_ID": 66768, "ELEMENT_SET_NO": 999, "REV_AT_EPOCH": 329, "BSTAR": -0.001194076, "MEAN_MOTION_DOT": -0.00024544, "MEAN_MOTION_DDOT": 0}, "tle": {"line1": "1 66768U 25276DG  25354.43937972 -.00024544  00000+0 -11941-2 0  9996", "line2": "2 66768  97.4316  66.0947 0001961  82.5638 277.5819 15.18429861  3294"}}, "geometry": {"type": "Point", "coordinates": [-41.65667704309816, 82.18115834693609]}}, {"type": "Feature", "properties": {"norad_id": 66769, "name": "TRANSPORTER-15 DH", "group": "last-30-days", "lat": 82.39890553801175, "lon": -11.96716373525042, "alt_km": 501.72675282157525, "timestamp": "2025-12-20T18:51:30.446872+00:00", "meta": {"OBJECT_NAME": "TRANSPORTER-15 DH", "OBJECT_ID": "2025-276DH", "EPOCH": "2025-12-20T10:33:43.623936", "MEAN_MOTION": 15.18375646, "ECCENTRICITY": 0.00024514, "INCLINATION": 97.4428, "RA_OF_ASC_NODE": 66.1049, "ARG_OF_PERICENTER": 113.728, "MEAN_ANOMALY": 246.4211, "EPHEMERIS_TYPE": 0, "CLASSIFICATION_TYPE": "U", "NORAD_CAT_ID": 66769, "ELEMENT_SET_NO": 999, "REV_AT_EPOCH": 329, "BSTAR": 0.00035943343, "MEAN_MOTION_DOT": 7.322e-05, "MEAN_MOTION_DDOT": 0}, "tle": {"line1": "1 66769U 25276DH  25354.44008824  .00007322  00000+0  35943-3 0  9995", "line2": "2 66769  97.4428  66.1049 0002451 113.7280 246.4211 15.18375646  3290"}}, "geometry": {"type": "Point", "coordinates": [-11.96716373525042, 82.39890553801175]}}, {"type": "Feature", "properties": {"norad_id": 66770, "name": "TRANSPORTER-15 DJ", "group": "last-30-days", "lat": 82.53940938185815, "lon": -26.494119213929967, "alt_km": 501.78053871284374, "timestamp": "2025-12-20T18:51:30.446882+00:00", "meta": {"OBJECT_NAME": "TRANSPORTER-15 DJ", "OBJECT_ID": "2025-276DJ", "EPOCH": "2025-12-20T10:33:13.327776", "MEAN_MOTION": 15.18372774, "ECCENTRICITY": 0.00028011, "INCLINATION": 97.4457, "RA_OF_ASC_NODE": 66.1132, "ARG_OF_PERICENTER": 130.8665, "MEAN_ANOMALY": 229.2812, "EPHEMERIS_TYPE": 0, "CLASSIFICATION_TYPE": "U", "NORAD_CAT_ID": 66770, "ELEMENT_SET_NO": 999, "REV_AT_EPOCH": 329, "BSTAR": 0.00033048512, "MEAN_MOTION_DOT": 6.726e-05, "MEAN_MOTION_DDOT": 0}, "tle": {"line1": "1 66770U 25276DJ  25354.43973759  .00006726  00000+0  33049-3 0  9996", "line2": "2 66770  97.4457  66.1132 0002801 130.8665 229.2812 15.18372774  3298"}}, "geometry": {"type": "Point", "coordinates": [-26.494119213929967, 82.53940938185815]}}, {"type": "Feature", "properties": {"norad_id": 66771, "name": "TRANSPORTER-15 DK", "group": "last-30-days", "lat": 82.23731602626752, "lon": -39.92712356784085, "alt_km": 501.364243118629, "timestamp": "2025-12-20T18:51:30.446896+00:00", "meta": {"OBJECT_NAME": "TRANSPORTER-15 DK", "OBJECT_ID": "2025-276DK", "EPOCH": "2025-12-20T10:32:46.256928", "MEAN_MOTION": 15.18433151, "ECCENTRICITY": 0.00028093, "INCLINATION": 97.4461, "RA_OF_ASC_NODE": 66.1119, "ARG_OF_PERICENTER": 119.6284, "MEAN_ANOMALY": 240.5231, "EPHEMERIS_TYPE": 0, "CLASSIFICATION_TYPE": "U", "NORAD_CAT_ID": 66771, "ELEMENT_SET_NO": 999, "REV_AT_EPOCH": 329, "BSTAR": 0.00035925096, "MEAN_MOTION_DOT": 7.331e-05, "MEAN_MOTION_DDOT": 0}, "tle": {"line1": "1 66771U 25276DK  25354.43942427  .00007331  00000+0  35925-3 0  9993", "line2": "2 66771  97.4461  66.1119 0002809 119.6284 240.5231 15.18433151  3297"}}, "geometry": {"type": "Point", "coordinates": [-39.92712356784085, 82.23731602626752]}}, {"type": "Feature", "properties": {"norad_id": 66772, "name": "TRANSPORTER-15 DL", "group": "last-30-days", "lat": 74.78161234152502, "lon": -84.81521396787375, "alt_km": 500.8208672280425, "timestamp": "2025-12-20T18:51:30.446907+00:00", "meta": {"OBJECT_NAME": "TRANSPORTER-15 DL", "OBJECT_ID": "2025-276DL", "EPOCH": "2025-12-20T10:29:54.991392", "MEAN_MOTION": 15.18640321, "ECCENTRICITY": 0.0002922, "INCLINATION": 97.4447, "RA_OF_ASC_NODE": 66.1124, "ARG_OF_PERICENTER": 108.6235, "MEAN_ANOMALY": 251.5317, "EPHEMERIS_TYPE": 0, "CLASSIFICATION_TYPE": "U", "NORAD_CAT_ID": 66772, "ELEMENT_SET_NO": 999, "REV_AT_EPOCH": 329, "BSTAR": 0.00036732791, "MEAN_MOTION_DOT": 7.543e-05, "MEAN_MOTION_DDOT": 0}, "tle": {"line1": "1 66772U 25276DL  25354.43744203  .00007543  00000+0  36733-3 0  9999", "line2": "2 66772  97.4447  66.1124 0002922 108.6235 251.5317 15.18640321  3294"}}, "geometry": {"type": "Point", "coordinates": [-84.81521396787375, 74.78161234152502]}}, {"type": "Feature", "properties": {"norad_id": 66773, "name": "TRANSPORTER-15 DM", "group": "last-30-days", "lat": 79.07308313394972, "lon": -70.92193557248098, "alt_km": 500.93007832453986, "timestamp": "2025-12-20T18:51:30.446916+00:00", "meta": {"OBJECT_NAME": "TRANSPORTER-15 DM", "OBJECT_ID": "2025-276DM", "EPOCH": "2025-12-20T05:46:35.884704", "MEAN_MOTION": 15.18511949, "ECCENTRICITY": 0.00029593, "INCLINATION": 97.4434, "RA_OF_ASC_NODE": 65.9161, "ARG_OF_PERICENTER": 104.8131, "MEAN_ANOMALY": 255.3431, "EPHEMERIS_TYPE": 0, "CLASSIFICATION_TYPE": "U", "NORAD_CAT_ID": 66773, "ELEMENT_SET_NO": 999, "REV_AT_EPOCH": 326, "BSTAR": 0.00057679801, "MEAN_MOTION_DOT": 0.00011845, "MEAN_MOTION_DDOT": 0}, "tle": {"line1": "1 66773U 25276DM  25354.24069311  .00011845  00000+0  57680-3 0  9993", "line2": "2 66773  97.4434  65.9161 0002959 104.8131 255.3431 15.18511949  3261"}}, "geometry": {"type": "Point", "coordinates": [-70.92193557248098, 79.07308313394972]}}, {"type": "Feature", "properties": {"norad_id": 66774, "name": "TRANSPORTER-15 DN", "group": "last-30-days", "lat": 77.32144812572817, "lon": -78.02327568415377, "alt_km": 500.91374538269247, "timestamp": "2025-12-20T18:51:30.446928+00:00", "meta": {"OBJECT_NAME": "TRANSPORTER-15 DN", "OBJECT_ID": "2025-276DN", "EPOCH": "2025-12-20T10:30:40.840416", "MEAN_MOTION": 15.18547601, "ECCENTRICITY": 0.00029786, "INCLINATION": 97.4427, "RA_OF_ASC_NODE": 66.107, "ARG_OF_PERICENTER": 103.199, "MEAN_ANOMALY": 256.9577, "EPHEMERIS_TYPE": 0, "CLASSIFICATION_TYPE": "U", "NORAD_CAT_ID": 66774, "ELEMENT_SET_NO": 999, "REV_AT_EPOCH": 329, "BSTAR": 0.00033272703, "MEAN_MOTION_DOT": 6.807e-05, "MEAN_MOTION_DDOT": 0}, "tle": {"line1": "1 66774U 25276DN  25354.43797269  .00006807  00000+0  33273-3 0  9999", "line2": "2 66774  97.4427  66.1070 0002978 103.1990 256.9577 15.18547601  3297"}}, "geometry": {"type": "Point", "coordinates": [-78.02327568415377, 77.32144812572817]}}]}